OBJECT_NAME,OBJECT_ID,EPOCH,MEAN_MOTION,ECCENTRICITY,INCLINATION,RA_OF_ASC_NODE,ARG_OF_PERICENTER,MEAN_ANOMALY,EPHEMERIS_TYPE,CLASSIFICATION_TYPE,NORAD_CAT_ID,ELEMENT_SET_NO,REV_AT_EPOCH,BSTAR,MEAN_MOTION_DOT,MEAN_MOTION_DDOT
COSMOS 2058,1990-010A,2026-06-27T18:57:37.389312,15.12080699,.00086437,82.4696,298.8988,318.6335,41.4240,0,U,20465,999,95887,.17032826E-3,.2961E-4,0
SL-14 R/B,1990-010B,2026-06-27T21:23:27.070656,14.83652846,.00183558,82.5020,163.8920,299.0417,60.8958,0,U,20466,999,94482,.43474307E-4,.383E-5,0
SL-14 R/B,1990-018B,2026-06-27T21:07:28.946496,14.82223105,.00177135,82.5219,120.1136,89.4250,270.8994,0,U,20511,999,93890,.45430454E-4,.387E-5,0
HST,1990-037B,2026-06-27T21:36:12.462336,15.30869751,.00013929,28.4733,7.3521,273.3944,86.6493,0,U,20580,999,79021,.20967149E-3,.6671E-4,0
SL-16 R/B,1990-046B,2026-06-27T23:25:25.523904,14.15025969,.00126534,70.9998,66.2905,144.5864,215.6101,0,U,20625,999,86399,-.94406297E-4,-.231E-5,0
COSMOS 2084,1990-055A,2026-06-27T19:36:43.094880,15.06159244,.00061846,62.7909,319.8073,297.4738,62.5733,0,U,20663,999,95290,.16039565E-3,.2159E-4,0
SL-6 R/B(2),1990-055D,2026-06-27T21:16:44.906304,15.04033641,.00424029,62.7809,238.9668,6.6087,353.5563,0,U,20666,999,95476,.10949293E-3,.1342E-4,0
SL-8 R/B,1990-078B,2026-06-27T22:06:31.752576,14.92843302,.03478756,82.9009,151.9425,2.2541,358.0144,0,U,20775,999,82572,.76603076E-3,.27104E-3,0
SL-8 R/B,1991-006B,2026-06-27T19:30:36.909216,13.77506837,.00238914,82.9425,88.1294,86.5368,332.0939,0,U,21088,999,77923,.43077516E-4,.58E-6,0
OKEAN-3,1991-039A,2026-06-27T15:23:13.387488,15.05372529,.0012839,82.5164,230.2449,319.0985,40.9278,0,U,21397,999,88157,.13746015E-3,.2E-4,0
COSMOS 2151,1991-042A,2026-06-27T22:19:05.749824,15.00467952,.0013421,82.4966,337.3124,51.4504,308.7920,0,U,21422,999,87972,.13614816E-3,.1743E-4,0
SL-14 R/B,1991-042B,2026-06-27T21:20:07.818432,14.81908771,.0015633,82.4936,116.8603,236.2069,123.7657,0,U,21423,999,86939,.39634052E-4,.337E-5,0
ERS-1,1991-050A,2026-06-27T19:11:13.147008,14.39523254,.00308993,98.7794,199.7568,234.3049,125.5262,0,U,21574,999,83157,.10739539E-3,.29E-5,0
ARIANE 40 R/B,1991-050F,2026-06-27T20:47:42.015264,14.42962828,.00044789,98.1870,226.8672,98.4017,261.7682,0,U,21610,999,83488,.91264108E-4,.264E-5,0
INTERCOSMOS 25,1991-086A,2026-06-27T22:10:57.024768,12.12213609,.14839895,82.6038,243.3126,239.2073,105.4715,0,U,21819,999,51004,.14201501E-3,.716E-5,0
SL-8 R/B,1992-008B,2026-06-27T12:50:26.151360,13.75979636,.00345032,82.9259,186.0935,185.3693,288.7874,0,U,21876,999,72452,.13981486E-3,.151E-5,0
SL-8 R/B,1992-020B,2026-06-27T22:54:54.534240,13.75549874,.00289735,82.9303,71.8596,352.8686,18.0214,0,U,21938,999,71629,.45389054E-4,.59E-6,0
USA 81,1992-023A,2026-06-27T23:06:29.940192,14.32400797,.00026163,85.0069,67.7882,75.5193,284.6290,0,U,21949,999,11057,.48614031E-4,.151E-5,0
COSMOS 2219,1992-076A,2026-06-27T20:55:37.937568,14.14106715,.00171606,71.0600,147.7353,26.0017,334.1964,0,U,22219,999,73395,.16317333E-3,.264E-5,0
SL-16 R/B,1992-076B,2026-06-27T20:23:50.354304,14.16875521,.00150062,71.0013,316.3189,284.6880,229.9955,0,U,22220,999,73743,-.5217954E-4,-.153E-5,0
COSMOS 2221,1992-080A,2026-06-27T23:17:50.781696,14.96559830,.00142654,82.5031,173.4327,174.9614,185.1755,0,U,22236,999,79728,.12381113E-3,.1437E-4,0
SL-16 R/B,1992-093B,2026-06-27T21:55:30.472896,14.15461691,.0003401,71.0207,132.8734,167.8328,192.2877,0,U,22285,999,72875,.14736279E-3,.24E-5,0
COSMOS 2228,1992-094A,2026-06-27T21:52:52.569984,14.97623591,.00160544,82.5180,131.7703,293.2951,66.6582,0,U,22286,999,79255,.13765736E-3,.1639E-4,0
SL-16 R/B,1993-016B,2026-06-27T21:28:23.882304,14.15315523,.00094768,71.0088,343.7169,168.1996,191.9351,0,U,22566,999,71776,-.68900402E-4,-.182E-5,0
COSMOS 2242,1993-024A,2026-06-27T22:37:48.263808,14.96934997,.00145671,82.5183,161.2522,297.3131,62.6608,0,U,22626,999,79688,.14452345E-3,.1689E-4,0
SL-16 R/B,1993-059B,2026-06-27T13:59:22.754400,14.17247475,.00156949,70.9892,139.3809,36.7308,323.4888,0,U,22803,999,69510,.81769523E-4,.117E-5,0
ARIANE 40 R/B,1993-061H,2026-06-27T21:20:17.569536,14.32911807,.00098281,98.4815,245.5237,323.2216,36.8293,0,U,22830,999,70988,.74431701E-4,.16E-5,0
COSMOS 2278,1994-023A,2026-06-27T17:07:58.156320,14.14398064,.00104295,71.0552,304.9007,231.0711,128.9483,0,U,23087,999,66036,-.69967903E-4,-.181E-5,0
SL-16 R/B,1994-023B,2026-06-27T18:45:32.914080,14.15027464,.00020186,70.9985,199.6821,177.8919,182.2212,0,U,23088,999,66166,-.37567279E-4,-.12E-5,0
SL-16 R/B,1994-074B,2026-06-27T17:05:08.812320,14.79510609,.00056717,97.6988,204.9942,211.6358,284.4295,0,U,23343,999,70351,.59702972E-4,.397E-5,0
