COSMOS 2058             
1 20465U 90010A   26178.79001608  .00002961  00000+0  17033-3 0  9996
2 20465  82.4696 298.8988 0008643 318.6335  41.4240 15.12080699958879
SL-14 R/B               
1 20466U 90010B   26178.89128554  .00000383  00000+0  43474-4 0  9993
2 20466  82.5020 163.8920 0018355 299.0417  60.8958 14.83652846944820
SL-14 R/B               
1 20511U 90018B   26178.88019614  .00000387  00000+0  45430-4 0  9995
2 20511  82.5219 120.1136 0017713  89.4250 270.8994 14.82223105938905
HST                     
1 20580U 90037B   26178.90014424  .00006671  00000+0  20967-3 0  9998
2 20580  28.4733   7.3521 0001392 273.3944  86.6493 15.30869751790219
SL-16 R/B               
1 20625U 90046B   26178.97598986 -.00000231  00000+0 -94406-4 0  9993
2 20625  70.9998  66.2905 0012653 144.5864 215.6101 14.15025969863999
COSMOS 2084             
1 20663U 90055A   26178.81716545  .00002159  00000+0  16040-3 0  9997
2 20663  62.7909 319.8073 0006184 297.4738  62.5733 15.06159244952900
SL-6 R/B(2)             
1 20666U 90055D   26178.88663086  .00001342  00000+0  10949-3 0  9993
2 20666  62.7809 238.9668 0042402   6.6087 353.5563 15.04033641954763
SL-8 R/B                
1 20775U 90078B   26178.92120084  .00027104  00000+0  76603-3 0  9993
2 20775  82.9009 151.9425 0347875   2.2541 358.0144 14.92843302825721
SL-8 R/B                
1 21088U 91006B   26178.81292719  .00000058  00000+0  43078-4 0  9996
2 21088  82.9425  88.1294 0023891  86.5368 332.0939 13.77506837779236
OKEAN-3                 
1 21397U 91039A   26178.64112717  .00002000  00000+0  13746-3 0  9992
2 21397  82.5164 230.2449 0012839 319.0985  40.9278 15.05372529881570
COSMOS 2151             
1 21422U 91042A   26178.92992766  .00001743  00000+0  13615-3 0  9994
2 21422  82.4966 337.3124 0013421  51.4504 308.7920 15.00467952879722
SL-14 R/B               
1 21423U 91042B   26178.88897938  .00000337  00000+0  39634-4 0  9993
2 21423  82.4936 116.8603 0015633 236.2069 123.7657 14.81908771869399
ERS-1                   
1 21574U 91050A   26178.79945772  .00000290  00000+0  10740-3 0  9993
2 21574  98.7794 199.7568 0030899 234.3049 125.5262 14.39523254831579
ARIANE 40 R/B           
1 21610U 91050F   26178.86645851  .00000264  00000+0  91264-4 0  9999
2 21610  98.1870 226.8672 0004478  98.4017 261.7682 14.42962828834889
INTERCOSMOS 25          
1 21819U 91086A   26178.92427112  .00000716  00000+0  14202-3 0  9992
2 21819  82.6038 243.3126 1483989 239.2073 105.4715 12.12213609510049
SL-8 R/B                
1 21876U 92008B   26178.53502490  .00000151  00000+0  13981-3 0  9996
2 21876  82.9259 186.0935 0034503 185.3693 288.7874 13.75979636724523
SL-8 R/B                
1 21938U 92020B   26178.95479785  .00000059  00000+0  45389-4 0  9990
2 21938  82.9303  71.8596 0028973 352.8686  18.0214 13.75549874716297
USA 81                  
1 21949U 92023A   26178.96284653  .00000151  00000+0  48614-4 0  9991
2 21949  85.0069  67.7882 0002616  75.5193 284.6290 14.32400797110570
COSMOS 2219             
1 22219U 92076A   26178.87196687  .00000264  00000+0  16317-3 0  9998
2 22219  71.0600 147.7353 0017160  26.0017 334.1964 14.14106715733950
SL-16 R/B               
1 22220U 92076B   26178.84988836 -.00000153  00000+0 -52180-4 0  9990
2 22220  71.0013 316.3189 0015006 284.6880 229.9955 14.16875521737436
COSMOS 2221             
1 22236U 92080A   26178.97072664  .00001437  00000+0  12381-3 0  9991
2 22236  82.5031 173.4327 0014265 174.9614 185.1755 14.96559830797288
SL-16 R/B               
1 22285U 92093B   26178.91354714  .00000240  00000+0  14736-3 0  9999
2 22285  71.0207 132.8734 0003401 167.8328 192.2877 14.15461691728752
COSMOS 2228             
1 22286U 92094A   26178.91171956  .00001639  00000+0  13766-3 0  9991
2 22286  82.5180 131.7703 0016054 293.2951  66.6582 14.97623591792553
SL-16 R/B               
1 22566U 93016B   26178.89472086 -.00000182  00000+0 -68900-4 0  9997
2 22566  71.0088 343.7169 0009476 168.1996 191.9351 14.15315523717763
COSMOS 2242             
1 22626U 93024A   26178.94291972  .00001689  00000+0  14452-3 0  9995
2 22626  82.5183 161.2522 0014567 297.3131  62.6608 14.96934997796882
SL-16 R/B               
1 22803U 93059B   26178.58290225  .00000117  00000+0  81770-4 0  9993
2 22803  70.9892 139.3809 0015694  36.7308 323.4888 14.17247475695106
ARIANE 40 R/B           
1 22830U 93061H   26178.88909224  .00000160  00000+0  74432-4 0  9990
2 22830  98.4815 245.5237 0009828 323.2216  36.8293 14.32911807709885
COSMOS 2278             
1 23087U 94023A   26178.71386755 -.00000181  00000+0 -69968-4 0  9997
2 23087  71.0552 304.9007 0010429 231.0711 128.9483 14.14398064660362
SL-16 R/B               
1 23088U 94023B   26178.78163095 -.00000120  00000+0 -37567-4 0  9998
2 23088  70.9985 199.6821 0002018 177.8919 182.2212 14.15027464661667
SL-16 R/B               
1 23343U 94074B   26178.71190755  .00000397  00000+0  59703-4 0  9994
2 23343  97.6988 204.9942 0005671 211.6358 284.4295 14.79510609703511
